{
 "generated_at": "2026-06-26T08:30:21Z",
 "sources": [
  {
   "name": "CelesTrak",
   "url": "https://celestrak.org/NORAD/elements/",
   "license": "frei verfügbar; Attribution. Ursprünglich USSPACECOM/Space-Track."
  },
  {
   "name": "GCAT (J. McDowell, planet4589.org)",
   "url": "https://planet4589.org/space/gcat/",
   "license": "CC-BY 4.0"
  }
 ],
 "satellites": [
  {
   "norad": 49070,
   "name": "PLEIADES NEO 4",
   "intl": "2021-073E",
   "group": "resource",
   "gcat": {
    "class": null,
    "category": "IMG",
    "owner": "ADSTI",
    "state": "F"
   },
   "omm": {
    "OBJECT_NAME": "PLEIADES NEO 4",
    "OBJECT_ID": "2021-073E",
    "EPOCH": "2026-06-25T19:06:13.224096",
    "MEAN_MOTION": 14.81678649,
    "ECCENTRICITY": 0.0001377,
    "INCLINATION": 97.8934,
    "RA_OF_ASC_NODE": 251.4352,
    "ARG_OF_PERICENTER": 85.9629,
    "MEAN_ANOMALY": 274.1741,
    "EPHEMERIS_TYPE": 0,
    "CLASSIFICATION_TYPE": "U",
    "NORAD_CAT_ID": 49070,
    "ELEMENT_SET_NO": 999,
    "REV_AT_EPOCH": 26264,
    "BSTAR": 0.00011725,
    "MEAN_MOTION_DOT": 0.00000871,
    "MEAN_MOTION_DDOT": 0
   }
  },
  {
   "norad": 68835,
   "name": "PRSC-E03",
   "intl": "2026-092A",
   "group": "resource",
   "gcat": {
    "class": "C",
    "category": "IMG",
    "owner": "SUPA",
    "state": "PK"
   },
   "omm": {
    "OBJECT_NAME": "PRSC-E03",
    "OBJECT_ID": "2026-092A",
    "EPOCH": "2026-06-26T01:39:25.006752",
    "MEAN_MOTION": 15.06712084,
    "ECCENTRICITY": 0.0002662,
    "INCLINATION": 38.002,
    "RA_OF_ASC_NODE": 37.3045,
    "ARG_OF_PERICENTER": 93.7021,
    "MEAN_ANOMALY": 266.4045,
    "EPHEMERIS_TYPE": 0,
    "CLASSIFICATION_TYPE": "U",
    "NORAD_CAT_ID": 68835,
    "ELEMENT_SET_NO": 999,
    "REV_AT_EPOCH": 929,
    "BSTAR": 0.00019962,
    "MEAN_MOTION_DOT": 0.00002915,
    "MEAN_MOTION_DDOT": 0
   }
  },
  {
   "norad": 62725,
   "name": "PRSC-EO1",
   "intl": "2025-012A",
   "group": "resource",
   "gcat": {
    "class": "C",
    "category": "IMG",
    "owner": "JHQJ/YINHE",
    "state": "CN"
   },
   "omm": {
    "OBJECT_NAME": "PRSC-EO1",
    "OBJECT_ID": "2025-012A",
    "EPOCH": "2026-06-26T05:23:17.642400",
    "MEAN_MOTION": 15.17715429,
    "ECCENTRICITY": 0.0005521,
    "INCLINATION": 97.4227,
    "RA_OF_ASC_NODE": 249.5074,
    "ARG_OF_PERICENTER": 214.4034,
    "MEAN_ANOMALY": 145.6843,
    "EPHEMERIS_TYPE": 0,
    "CLASSIFICATION_TYPE": "U",
    "NORAD_CAT_ID": 62725,
    "ELEMENT_SET_NO": 999,
    "REV_AT_EPOCH": 7956,
    "BSTAR": 0.00039974,
    "MEAN_MOTION_DOT": 0.00008001,
    "MEAN_MOTION_DDOT": 0
   }
  },
  {
   "norad": 65055,
   "name": "PRSC-S1",
   "intl": "2025-164A",
   "group": "resource",
   "gcat": {
    "class": "C",
    "category": "IMG-R",
    "owner": "SUPA",
    "state": "PK"
   },
   "omm": {
    "OBJECT_NAME": "PRSC-S1",
    "OBJECT_ID": "2025-164A",
    "EPOCH": "2026-06-26T03:32:30.153408",
    "MEAN_MOTION": 15.06522613,
    "ECCENTRICITY": 0.0005274,
    "INCLINATION": 41.1297,
    "RA_OF_ASC_NODE": 237.3451,
    "ARG_OF_PERICENTER": 48.098,
    "MEAN_ANOMALY": 312.0283,
    "EPHEMERIS_TYPE": 0,
    "CLASSIFICATION_TYPE": "U",
    "NORAD_CAT_ID": 65055,
    "ELEMENT_SET_NO": 999,
    "REV_AT_EPOCH": 4978,
    "BSTAR": 0.00027528,
    "MEAN_MOTION_DOT": 0.00003966,
    "MEAN_MOTION_DDOT": 0
   }
  },
  {
   "norad": 64055,
   "name": "QPS-SAR-10 (WADATSUMI-I)",
   "intl": "2025-104A",
   "group": "sar",
   "gcat": {
    "class": "B",
    "category": "IMG-R",
    "owner": "QPS",
    "state": "J"
   },
   "omm": {
    "OBJECT_NAME": "QPS-SAR-10 (WADATSUMI-I)",
    "OBJECT_ID": "2025-104A",
    "EPOCH": "2026-06-26T04:00:26.158752",
    "MEAN_MOTION": 15.0184118,
    "ECCENTRICITY": 0.0012073,
    "INCLINATION": 42.0029,
    "RA_OF_ASC_NODE": 229.4516,
    "ARG_OF_PERICENTER": 32.4344,
    "MEAN_ANOMALY": 327.7222,
    "EPHEMERIS_TYPE": 0,
    "CLASSIFICATION_TYPE": "U",
    "NORAD_CAT_ID": 64055,
    "ELEMENT_SET_NO": 999,
    "REV_AT_EPOCH": 6078,
    "BSTAR": 0.00032895,
    "MEAN_MOTION_DOT": 0.00004185,
    "MEAN_MOTION_DDOT": 0
   }
  },
  {
   "norad": 64340,
   "name": "QPS-SAR-11 (YAMATSUMI-I)",
   "intl": "2025-125A",
   "group": "sar",
   "gcat": {
    "class": "B",
    "category": "IMG-R",
    "owner": "QPS",
    "state": "J"
   },
   "omm": {
    "OBJECT_NAME": "QPS-SAR-11 (YAMATSUMI-I)",
    "OBJECT_ID": "2025-125A",
    "EPOCH": "2026-06-26T00:53:49.883424",
    "MEAN_MOTION": 15.0167412,
    "ECCENTRICITY": 0.0010196,
    "INCLINATION": 42.0063,
    "RA_OF_ASC_NODE": 142.9734,
    "ARG_OF_PERICENTER": 192.5294,
    "MEAN_ANOMALY": 167.528,
    "EPHEMERIS_TYPE": 0,
    "CLASSIFICATION_TYPE": "U",
    "NORAD_CAT_ID": 64340,
    "ELEMENT_SET_NO": 999,
    "REV_AT_EPOCH": 5695,
    "BSTAR": 0.00040074,
    "MEAN_MOTION_DOT": 0.00005115,
    "MEAN_MOTION_DDOT": 0
   }
  },
  {
   "norad": 65116,
   "name": "QPS-SAR-12 (KUSHINADA-I)",
   "intl": "2025-169A",
   "group": "sar",
   "gcat": {
    "class": "B",
    "category": "IMG-R",
    "owner": "QPS",
    "state": "J"
   },
   "omm": {
    "OBJECT_NAME": "QPS-SAR-12 (KUSHINADA-I)",
    "OBJECT_ID": "2025-169A",
    "EPOCH": "2026-06-25T19:45:00.027072",
    "MEAN_MOTION": 15.00919739,
    "ECCENTRICITY": 0.000868,
    "INCLINATION": 42.0125,
    "RA_OF_ASC_NODE": 328.4268,
    "ARG_OF_PERICENTER": 271.8263,
    "MEAN_ANOMALY": 88.1568,
    "EPHEMERIS_TYPE": 0,
    "CLASSIFICATION_TYPE": "U",
    "NORAD_CAT_ID": 65116,
    "ELEMENT_SET_NO": 999,
    "REV_AT_EPOCH": 4871,
    "BSTAR": 0.00041786,
    "MEAN_MOTION_DOT": 0.00005233,
    "MEAN_MOTION_DDOT": 0
   }
  },
  {
   "norad": 66316,
   "name": "QPS-SAR-14 (YACHIHOKO-I)",
   "intl": "2025-252A",
   "group": "sar",
   "gcat": {
    "class": "B",
    "category": "IMG-R",
    "owner": "QPS",
    "state": "J"
   },
   "omm": {
    "OBJECT_NAME": "QPS-SAR-14 (YACHIHOKO-I)",
    "OBJECT_ID": "2025-252A",
    "EPOCH": "2026-06-25T18:52:09.802848",
    "MEAN_MOTION": 14.99750282,
    "ECCENTRICITY": 0.0007045,
    "INCLINATION": 42.0034,
    "RA_OF_ASC_NODE": 84.5439,
    "ARG_OF_PERICENTER": 305.088,
    "MEAN_ANOMALY": 54.9285,
    "EPHEMERIS_TYPE": 0,
    "CLASSIFICATION_TYPE": "U",
    "NORAD_CAT_ID": 66316,
    "ELEMENT_SET_NO": 999,
    "REV_AT_EPOCH": 3480,
    "BSTAR": 0.0003246,
    "MEAN_MOTION_DOT": 0.00003897,
    "MEAN_MOTION_DDOT": 0
   }
  },
  {
   "norad": 67228,
   "name": "QPS-SAR-15 (SUKUNAMI-I)",
   "intl": "2025-307A",
   "group": "sar",
   "gcat": {
    "class": "B",
    "category": "IMG-R",
    "owner": "QPS",
    "state": "J"
   },
   "omm": {
    "OBJECT_NAME": "QPS-SAR-15 (SUKUNAMI-I)",
    "OBJECT_ID": "2025-307A",
    "EPOCH": "2026-06-25T12:01:56.529408",
    "MEAN_MOTION": 14.99044097,
    "ECCENTRICITY": 0.0009191,
    "INCLINATION": 42.0045,
    "RA_OF_ASC_NODE": 182.2398,
    "ARG_OF_PERICENTER": 44.442,
    "MEAN_ANOMALY": 315.7141,
    "EPHEMERIS_TYPE": 0,
    "CLASSIFICATION_TYPE": "U",
    "NORAD_CAT_ID": 67228,
    "ELEMENT_SET_NO": 999,
    "REV_AT_EPOCH": 2793,
    "BSTAR": 0.00033951,
    "MEAN_MOTION_DOT": 0.00004008,
    "MEAN_MOTION_DDOT": 0
   }
  },
  {
   "norad": 58578,
   "name": "QPS-SAR-5 (TSUKUYOMI-I)",
   "intl": "2023-196A",
   "group": "sar",
   "gcat": {
    "class": "B",
    "category": "IMG-R",
    "owner": "QPS",
    "state": "J"
   },
   "omm": {
    "OBJECT_NAME": "QPS-SAR-5 (TSUKUYOMI-I)",
    "OBJECT_ID": "2023-196A",
    "EPOCH": "2026-06-26T02:12:08.758656",
    "MEAN_MOTION": 15.22784222,
    "ECCENTRICITY": 0.0026716,
    "INCLINATION": 42.0116,
    "RA_OF_ASC_NODE": 325.1801,
    "ARG_OF_PERICENTER": 338.4673,
    "MEAN_ANOMALY": 21.5036,
    "EPHEMERIS_TYPE": 0,
    "CLASSIFICATION_TYPE": "U",
    "NORAD_CAT_ID": 58578,
    "ELEMENT_SET_NO": 999,
    "REV_AT_EPOCH": 13960,
    "BSTAR": 0.00062719,
    "MEAN_MOTION_DOT": 0.00014891,
    "MEAN_MOTION_DDOT": 0
   }
  }
 ]
}
