PLEIADES NEO 4          
1 49070U 21073E   26176.79598639  .00000871  00000+0  11725-3 0  9995
2 49070  97.8934 251.4352 0001377  85.9629 274.1741 14.81678649262641
QPS-SAR-5 (TSUKUYOMI-I) 
1 58578U 23196A   26177.09176804  .00014891  00000+0  62719-3 0  9992
2 58578  42.0116 325.1801 0026716 338.4673  21.5036 15.22784222139606
PRSC-EO1                
1 62725U 25012A   26177.22450975  .00008001  00000+0  39974-3 0  9992
2 62725  97.4227 249.5074 0005521 214.4034 145.6843 15.17715429 79567
QPS-SAR-10 (WADATSUMI-I)
1 64055U 25104A   26177.16696943  .00004185  00000+0  32895-3 0  9996
2 64055  42.0029 229.4516 0012073  32.4344 327.7222 15.01841180 60786
QPS-SAR-11 (YAMATSUMI-I)
1 64340U 25125A   26177.03738291  .00005115  00000+0  40074-3 0  9997
2 64340  42.0063 142.9734 0010196 192.5294 167.5280 15.01674120 56954
PRSC-S1                 
1 65055U 25164A   26177.14757122  .00003966  00000+0  27528-3 0  9991
2 65055  41.1297 237.3451 0005274  48.0980 312.0283 15.06522613 49787
QPS-SAR-12 (KUSHINADA-I)
1 65116U 25169A   26176.82291698  .00005233  00000+0  41786-3 0  9990
2 65116  42.0125 328.4268 0008680 271.8263  88.1568 15.00919739 48719
QPS-SAR-14 (YACHIHOKO-I)
1 66316U 25252A   26176.78622457  .00003897  00000+0  32460-3 0  9995
2 66316  42.0034  84.5439 0007045 305.0880  54.9285 14.99750282 34805
QPS-SAR-15 (SUKUNAMI-I) 
1 67228U 25307A   26176.50134872  .00004008  00000+0  33951-3 0  9999
2 67228  42.0045 182.2398 0009191  44.4420 315.7141 14.99044097 27933
PRSC-E03                
1 68835U 26092A   26177.06903943  .00002915  00000+0  19962-3 0  9992
2 68835  38.0020  37.3045 0002662  93.7021 266.4045 15.06712084  9296
